[{"OBJECT_NAME":"STARLINK-2428","OBJECT_ID":"2021-027H","EPOCH":"2026-03-09T12:09:34.121952","MEAN_MOTION":15.30198485,"ECCENTRICITY":9.773e-5,"INCLINATION":53.1604,"RA_OF_ASC_NODE":168.6419,"ARG_OF_PERICENTER":86.2995,"MEAN_ANOMALY":273.8117,"EPHEMERIS_TYPE":0,"CLASSIFICATION_TYPE":"U","NORAD_CAT_ID":48099,"ELEMENT_SET_NO":999,"REV_AT_EPOCH":27244,"BSTAR":0.00031528731,"MEAN_MOTION_DOT":8.99e-5,"MEAN_MOTION_DDOT":0},{"OBJECT_NAME":"FREGAT DEB","OBJECT_ID":"2011-037BH","EPOCH":"2026-03-09T13:07:54.597216","MEAN_MOTION":11.33026983,"ECCENTRICITY":0.18797348,"INCLINATION":51.4387,"RA_OF_ASC_NODE":55.211,"ARG_OF_PERICENTER":137.9759,"MEAN_ANOMALY":238.1716,"EPHEMERIS_TYPE":0,"CLASSIFICATION_TYPE":"U","NORAD_CAT_ID":45823,"ELEMENT_SET_NO":999,"REV_AT_EPOCH":23767,"BSTAR":0.00024993111,"MEAN_MOTION_DOT":1.115e-5,"MEAN_MOTION_DDOT":0}]
